CCSDS_OMM_VERS = 2.0
CREATION_DATE  = 
ORIGINATOR     = 

OBJECT_NAME    = CORAL
OBJECT_ID      = 1998-067YA
CENTER_NAME    = EARTH
REF_FRAME      = TEME
TIME_SYSTEM    = UTC
MEAN_ELEMENT_THEORY = SGP/SGP4

EPOCH          = 2026-03-23T04:36:54.989568
MEAN_MOTION    = 15.56579310
ECCENTRICITY   = .00123273
INCLINATION    = 51.6310
RA_OF_ASC_NODE = 4.0749
ARG_OF_PERICENTER = 223.6063
MEAN_ANOMALY   = 136.3956

EPHEMERIS_TYPE = 0
CLASSIFICATION_TYPE = U
NORAD_CAT_ID   = 67684
ELEMENT_SET_NO = 999
REV_AT_EPOCH   = 689
BSTAR          = .13187356E-2
MEAN_MOTION_DOT = .9651E-3
MEAN_MOTION_DDOT = 0

CCSDS_OMM_VERS = 2.0
CREATION_DATE  = 
ORIGINATOR     = 

OBJECT_NAME    = GXIBA-1
OBJECT_ID      = 1998-067YB
CENTER_NAME    = EARTH
REF_FRAME      = TEME
TIME_SYSTEM    = UTC
MEAN_ELEMENT_THEORY = SGP/SGP4

EPOCH          = 2026-03-22T06:33:11.551104
MEAN_MOTION    = 15.53290377
ECCENTRICITY   = .00116284
INCLINATION    = 51.6327
RA_OF_ASC_NODE = 9.1857
ARG_OF_PERICENTER = 227.8880
MEAN_ANOMALY   = 132.1122

EPHEMERIS_TYPE = 0
CLASSIFICATION_TYPE = U
NORAD_CAT_ID   = 67685
ELEMENT_SET_NO = 999
REV_AT_EPOCH   = 674
BSTAR          = .60489181E-3
MEAN_MOTION_DOT = .38654E-3
MEAN_MOTION_DDOT = 0

CCSDS_OMM_VERS = 2.0
CREATION_DATE  = 
ORIGINATOR     = 

OBJECT_NAME    = UITMSAT-2
OBJECT_ID      = 1998-067YC
CENTER_NAME    = EARTH
REF_FRAME      = TEME
TIME_SYSTEM    = UTC
MEAN_ELEMENT_THEORY = SGP/SGP4

EPOCH          = 2026-03-23T00:48:33.609312
MEAN_MOTION    = 15.54231876
ECCENTRICITY   = .00087347
INCLINATION    = 51.6323
RA_OF_ASC_NODE = 5.2680
ARG_OF_PERICENTER = 200.8114
MEAN_ANOMALY   = 159.2523

EPHEMERIS_TYPE = 0
CLASSIFICATION_TYPE = U
NORAD_CAT_ID   = 67686
ELEMENT_SET_NO = 999
REV_AT_EPOCH   = 686
BSTAR          = .1072261E-2
MEAN_MOTION_DOT = .71513E-3
MEAN_MOTION_DDOT = 0

CCSDS_OMM_VERS = 2.0
CREATION_DATE  = 
ORIGINATOR     = 

OBJECT_NAME    = HMU-SAT2
OBJECT_ID      = 1998-067YD
CENTER_NAME    = EARTH
REF_FRAME      = TEME
TIME_SYSTEM    = UTC
MEAN_ELEMENT_THEORY = SGP/SGP4

EPOCH          = 2026-03-23T04:15:55.528992
MEAN_MOTION    = 15.53181934
ECCENTRICITY   = .00084072
INCLINATION    = 51.6330
RA_OF_ASC_NODE = 4.7294
ARG_OF_PERICENTER = 204.6429
MEAN_ANOMALY   = 155.4161

EPHEMERIS_TYPE = 0
CLASSIFICATION_TYPE = U
NORAD_CAT_ID   = 67687
ELEMENT_SET_NO = 999
REV_AT_EPOCH   = 680
BSTAR          = .77754307E-3
MEAN_MOTION_DOT = .4963E-3
MEAN_MOTION_DDOT = 0

CCSDS_OMM_VERS = 2.0
CREATION_DATE  = 
ORIGINATOR     = 

OBJECT_NAME    = LEOPARD
OBJECT_ID      = 1998-067YE
CENTER_NAME    = EARTH
REF_FRAME      = TEME
TIME_SYSTEM    = UTC
MEAN_ELEMENT_THEORY = SGP/SGP4

EPOCH          = 2026-03-23T04:01:13.342656
MEAN_MOTION    = 15.53876626
ECCENTRICITY   = .00085648
INCLINATION    = 51.6330
RA_OF_ASC_NODE = 4.6613
ARG_OF_PERICENTER = 202.3440
MEAN_ANOMALY   = 157.7179

EPHEMERIS_TYPE = 0
CLASSIFICATION_TYPE = U
NORAD_CAT_ID   = 67688
ELEMENT_SET_NO = 999
REV_AT_EPOCH   = 680
BSTAR          = .87575679E-3
MEAN_MOTION_DOT = .57458E-3
MEAN_MOTION_DDOT = 0

CCSDS_OMM_VERS = 2.0
CREATION_DATE  = 
ORIGINATOR     = 

OBJECT_NAME    = CREW DRAGON 12
OBJECT_ID      = 2026-031A
CENTER_NAME    = EARTH
REF_FRAME      = TEME
TIME_SYSTEM    = UTC
MEAN_ELEMENT_THEORY = SGP/SGP4

EPOCH          = 2026-03-23T04:41:36.951648
MEAN_MOTION    = 15.48483260
ECCENTRICITY   = .00061926
INCLINATION    = 51.6344
RA_OF_ASC_NODE = 5.5946
ARG_OF_PERICENTER = 222.9473
MEAN_ANOMALY   = 137.1033

EPHEMERIS_TYPE = 0
CLASSIFICATION_TYPE = U
NORAD_CAT_ID   = 67796
ELEMENT_SET_NO = 999
REV_AT_EPOCH   = 55834
BSTAR          = .32963634E-3
MEAN_MOTION_DOT = .17435E-3
MEAN_MOTION_DDOT = 0

CCSDS_OMM_VERS = 2.0
CREATION_DATE  = 
ORIGINATOR     = 

OBJECT_NAME    = PROGRESS-MS 33
OBJECT_ID      = 2026-058A
CENTER_NAME    = EARTH
REF_FRAME      = TEME
TIME_SYSTEM    = UTC
MEAN_ELEMENT_THEORY = SGP/SGP4

EPOCH          = 2026-03-23T01:13:34.369536
MEAN_MOTION    = 16.01170532
ECCENTRICITY   = .00116217
INCLINATION    = 51.6358
RA_OF_ASC_NODE = 6.8873
ARG_OF_PERICENTER = 152.2903
MEAN_ANOMALY   = 207.8729

EPHEMERIS_TYPE = 0
CLASSIFICATION_TYPE = U
NORAD_CAT_ID   = 68319
ELEMENT_SET_NO = 999
REV_AT_EPOCH   = 6
BSTAR          = .35870065E-3
MEAN_MOTION_DOT = .200487E-2
MEAN_MOTION_DDOT = .28255529E-4

CCSDS_OMM_VERS = 2.0
CREATION_DATE  = 
ORIGINATOR     = 

OBJECT_NAME    = SL-4 R/B
OBJECT_ID      = 2026-058B
CENTER_NAME    = EARTH
REF_FRAME      = TEME
TIME_SYSTEM    = UTC
MEAN_ELEMENT_THEORY = SGP/SGP4

EPOCH          = 2026-03-23T06:57:17.347968
MEAN_MOTION    = 16.31507626
ECCENTRICITY   = .00189767
INCLINATION    = 51.6527
RA_OF_ASC_NODE = 5.5513
ARG_OF_PERICENTER = 76.1047
MEAN_ANOMALY   = 284.2086

EPHEMERIS_TYPE = 0
CLASSIFICATION_TYPE = U
NORAD_CAT_ID   = 68320
ELEMENT_SET_NO = 999
REV_AT_EPOCH   = 13
BSTAR          = .73957373E-3
MEAN_MOTION_DOT = .427847E-1
MEAN_MOTION_DDOT = .1220443E-4

