CORAL                   
1 67684U 98067YA  26082.19230312  .00096510  00000+0  13187-2 0  9992
2 67684  51.6310   4.0749 0012327 223.6063 136.3956 15.56579310  6898
GXIBA-1                 
1 67685U 98067YB  26081.27305036  .00038654  00000+0  60489-3 0  9990
2 67685  51.6327   9.1857 0011628 227.8880 132.1122 15.53290377  6742
UITMSAT-2               
1 67686U 98067YC  26082.03372233  .00071513  00000+0  10723-2 0  9995
2 67686  51.6323   5.2680 0008734 200.8114 159.2523 15.54231876  6863
HMU-SAT2                
1 67687U 98067YD  26082.17772603  .00049630  00000+0  77754-3 0  9999
2 67687  51.6330   4.7294 0008407 204.6429 155.4161 15.53181934  6803
LEOPARD                 
1 67688U 98067YE  26082.16751554  .00057458  00000+0  87576-3 0  9991
2 67688  51.6330   4.6613 0008564 202.3440 157.7179 15.53876626  6803
CREW DRAGON 12          
1 67796U 26031A   26082.19556657  .00017435  00000+0  32964-3 0  9995
2 67796  51.6344   5.5946 0006192 222.9473 137.1033 15.48483260558340
PROGRESS-MS 33          
1 68319U 26058A   26082.05109224  .00200487  28256-4  35870-3 0  9993
2 68319  51.6358   6.8873 0011621 152.2903 207.8729 16.01170532    69
SL-4 R/B                
1 68320U 26058B   26082.28978412  .04278470  12204-4  73957-3 0  9998
2 68320  51.6527   5.5513 0018976  76.1047 284.2086 16.31507626   133
